{"type": "FeatureCollection", "features": [ {"type": "Feature", "properties": {"norad_id": 30649, "name": "FENGYUN 1C DEB", "group": "fengyun-1c-debris", "lat": -16.531372194309775, "lon": 92.98388913472034, "alt_km": 833.2715567569121, "timestamp": "2025-12-20T22:39:10.903922+00:00", "meta": {"OBJECT_NAME": "FENGYUN 1C DEB", "OBJECT_ID": "1999-025APG", "EPOCH": "2025-12-19T20:25:49.283904", "MEAN_MOTION": 14.29588497, "ECCENTRICITY": 0.00511702, "INCLINATION": 98.8099, "RA_OF_ASC_NODE": 89.2409, "ARG_OF_PERICENTER": 151.2399, "MEAN_ANOMALY": 332.3269, "EPHEMERIS_TYPE": 0, "CLASSIFICATION_TYPE": "U", "NORAD_CAT_ID": 30649, "ELEMENT_SET_NO": 999, "REV_AT_EPOCH": 97165, "BSTAR": 0.0011889125, "MEAN_MOTION_DOT": 3.042e-05, "MEAN_MOTION_DDOT": 0}, "tle": {"line1": "1 30649U 99025APG 25353.85126486  .00003042  00000+0  11889-2 0  9992", "line2": "2 30649  98.8099  89.2409 0051170 151.2399 332.3269 14.29588497971656"}}, "geometry": {"type": "Point", "coordinates": [92.98388913472034, -16.531372194309775]}}, {"type": "Feature", "properties": {"norad_id": 30650, "name": "FENGYUN 1C DEB", "group": "fengyun-1c-debris", "lat": -60.83770089796512, "lon": -161.11735253282274, "alt_km": 839.1619922091086, "timestamp": "2025-12-20T22:39:10.903932+00:00", "meta": {"OBJECT_NAME": "FENGYUN 1C DEB", "OBJECT_ID": "1999-025APH", "EPOCH": "2025-12-20T01:16:42.233376", "MEAN_MOTION": 14.13973355, "ECCENTRICITY": 0.00722893, "INCLINATION": 99.2039, "RA_OF_ASC_NODE": 34.8574, "ARG_OF_PERICENTER": 169.4969, "MEAN_ANOMALY": 220.8741, "EPHEMERIS_TYPE": 0, "CLASSIFICATION_TYPE": "U", "NORAD_CAT_ID": 30650, "ELEMENT_SET_NO": 999, "REV_AT_EPOCH": 96402, "BSTAR": 0.001156053, "MEAN_MOTION_DOT": 2.204e-05, "MEAN_MOTION_DDOT": 0}, "tle": {"line1": "1 30650U 99025APH 25354.05326659  .00002204  00000+0  11561-2 0  9997", "line2": "2 30650  99.2039  34.8574 0072289 169.4969 220.8741 14.13973355964027"}}, "geometry": {"type": "Point", "coordinates": [-161.11735253282274, -60.83770089796512]}}, {"type": "Feature", "properties": {"norad_id": 30652, "name": "FENGYUN 1C DEB", "group": "fengyun-1c-debris", "lat": 56.88796185162508, "lon": -138.43207434651643, "alt_km": 863.848237141282, "timestamp": "2025-12-20T22:39:10.903941+00:00", "meta": {"OBJECT_NAME": "FENGYUN 1C DEB", "OBJECT_ID": "1999-025APJ", "EPOCH": "2025-12-20T00:14:42.376416", "MEAN_MOTION": 14.0780782, "ECCENTRICITY": 0.00074519, "INCLINATION": 98.7842, "RA_OF_ASC_NODE": 26.9454, "ARG_OF_PERICENTER": 241.8273, "MEAN_ANOMALY": 190.9672, "EPHEMERIS_TYPE": 0, "CLASSIFICATION_TYPE": "U", "NORAD_CAT_ID": 30652, "ELEMENT_SET_NO": 999, "REV_AT_EPOCH": 96796, "BSTAR": 8.739308e-06, "MEAN_MOTION_DOT": -2.8e-07, "MEAN_MOTION_DDOT": 0}, "tle": {"line1": "1 30652U 99025APJ 25354.01021269 -.00000028  00000+0  87393-5 0  9996", "line2": "2 30652  98.7842  26.9454 0007451 241.8273 190.9672 14.07807820967968"}}, "geometry": {"type": "Point", "coordinates": [-138.43207434651643, 56.88796185162508]}}, {"type": "Feature", "properties": {"norad_id": 30654, "name": "FENGYUN 1C DEB", "group": "fengyun-1c-debris", "lat": 42.25248730047635, "lon": -90.0033839946078, "alt_km": 809.4110253963454, "timestamp": "2025-12-20T22:39:10.903952+00:00", "meta": {"OBJECT_NAME": "FENGYUN 1C DEB", "OBJECT_ID": "1999-025APL", "EPOCH": "2025-12-20T05:30:24.981120", "MEAN_MOTION": 14.17127578, "ECCENTRICITY": 0.0035721, "INCLINATION": 99.2429, "RA_OF_ASC_NODE": 277.761, "ARG_OF_PERICENTER": 75.8834, "MEAN_ANOMALY": 284.6305, "EPHEMERIS_TYPE": 0, "CLASSIFICATION_TYPE": "U", "NORAD_CAT_ID": 30654, "ELEMENT_SET_NO": 999, "REV_AT_EPOCH": 96786, "BSTAR": 0.00081696, "MEAN_MOTION_DOT": 1.609e-05, "MEAN_MOTION_DDOT": 0}, "tle": {"line1": "1 30654U 99025APL 25354.22945580  .00001609  00000+0  81696-3 0  9995", "line2": "2 30654  99.2429 277.7610 0035721  75.8834 284.6305 14.17127578967865"}}, "geometry": {"type": "Point", "coordinates": [-90.0033839946078, 42.25248730047635]}}, {"type": "Feature", "properties": {"norad_id": 30656, "name": "FENGYUN 1C DEB", "group": "fengyun-1c-debris", "lat": -52.878176167066975, "lon": -178.3398716852608, "alt_km": 756.6214552881693, "timestamp": "2025-12-20T22:39:10.903961+00:00", "meta": {"OBJECT_NAME": "FENGYUN 1C DEB", "OBJECT_ID": "1999-025APN", "EPOCH": "2025-12-19T16:59:51.168768", "MEAN_MOTION": 14.45435506, "ECCENTRICITY": 0.00301371, "INCLINATION": 99.0174, "RA_OF_ASC_NODE": 168.2375, "ARG_OF_PERICENTER": 65.2514, "MEAN_ANOMALY": 295.1806, "EPHEMERIS_TYPE": 0, "CLASSIFICATION_TYPE": "U", "NORAD_CAT_ID": 30656, "ELEMENT_SET_NO": 999, "REV_AT_EPOCH": 97186, "BSTAR": 0.0016302769, "MEAN_MOTION_DOT": 5.727e-05, "MEAN_MOTION_DDOT": 0}, "tle": {"line1": "1 30656U 99025APN 25353.70823112  .00005727  00000+0  16303-2 0  9992", "line2": "2 30656  99.0174 168.2375 0030137  65.2514 295.1806 14.45435506971860"}}, "geometry": {"type": "Point", "coordinates": [-178.3398716852608, -52.878176167066975]}}, {"type": "Feature", "properties": {"norad_id": 30657, "name": "FENGYUN 1C DEB", "group": "fengyun-1c-debris", "lat": -43.237070002239676, "lon": -95.19649434883101, "alt_km": 770.3208760836987, "timestamp": "2025-12-20T22:39:10.903971+00:00", "meta": {"OBJECT_NAME": "FENGYUN 1C DEB", "OBJECT_ID": "1999-025APP", "EPOCH": "2025-12-20T05:03:23.735232", "MEAN_MOTION": 14.38682461, "ECCENTRICITY": 0.00163744, "INCLINATION": 98.8352, "RA_OF_ASC_NODE": 92.4587, "ARG_OF_PERICENTER": 320.317, "MEAN_ANOMALY": 68.4756, "EPHEMERIS_TYPE": 0, "CLASSIFICATION_TYPE": "U", "NORAD_CAT_ID": 30657, "ELEMENT_SET_NO": 999, "REV_AT_EPOCH": 97340, "BSTAR": 0.0013398795, "MEAN_MOTION_DOT": 4.07e-05, "MEAN_MOTION_DDOT": 0}, "tle": {"line1": "1 30657U 99025APP 25354.21069138  .00004070  00000+0  13399-2 0  9992", "line2": "2 30657  98.8352  92.4587 0016374 320.3170  68.4756 14.38682461973402"}}, "geometry": {"type": "Point", "coordinates": [-95.19649434883101, -43.237070002239676]}}, {"type": "Feature", "properties": {"norad_id": 30658, "name": "FENGYUN 1C DEB", "group": "fengyun-1c-debris", "lat": 26.033165057561607, "lon": 22.437481906484106, "alt_km": 1072.169593346248, "timestamp": "2025-12-20T22:39:10.903982+00:00", "meta": {"OBJECT_NAME": "FENGYUN 1C DEB", "OBJECT_ID": "1999-025APQ", "EPOCH": "2025-12-18T13:23:50.214912", "MEAN_MOTION": 13.87228138, "ECCENTRICITY": 0.01842986, "INCLINATION": 98.4389, "RA_OF_ASC_NODE": 24.4397, "ARG_OF_PERICENTER": 211.7114, "MEAN_ANOMALY": 147.2839, "EPHEMERIS_TYPE": 0, "CLASSIFICATION_TYPE": "U", "NORAD_CAT_ID": 30658, "ELEMENT_SET_NO": 999, "REV_AT_EPOCH": 94765, "BSTAR": 0.001331943, "MEAN_MOTION_DOT": 1.751e-05, "MEAN_MOTION_DDOT": 0}, "tle": {"line1": "1 30658U 99025APQ 25352.55822008  .00001751  00000+0  13319-2 0  9996", "line2": "2 30658  98.4389  24.4397 0184298 211.7114 147.2839 13.87228138947651"}}, "geometry": {"type": "Point", "coordinates": [22.437481906484106, 26.033165057561607]}}, {"type": "Feature", "properties": {"norad_id": 30660, "name": "FENGYUN 1C DEB", "group": "fengyun-1c-debris", "lat": -19.860116733948022, "lon": -91.3477487953914, "alt_km": 638.2931258501421, "timestamp": "2025-12-20T22:39:10.903991+00:00", "meta": {"OBJECT_NAME": "FENGYUN 1C DEB", "OBJECT_ID": "1999-025APS", "EPOCH": "2025-12-20T05:50:35.553984", "MEAN_MOTION": 14.87619757, "ECCENTRICITY": 0.0136539, "INCLINATION": 98.1396, "RA_OF_ASC_NODE": 90.8971, "ARG_OF_PERICENTER": 309.8916, "MEAN_ANOMALY": 102.8425, "EPHEMERIS_TYPE": 0, "CLASSIFICATION_TYPE": "U", "NORAD_CAT_ID": 30660, "ELEMENT_SET_NO": 999, "REV_AT_EPOCH": 896, "BSTAR": 0.00040494, "MEAN_MOTION_DOT": 4.304e-05, "MEAN_MOTION_DDOT": 0}, "tle": {"line1": "1 30660U 99025APS 25354.24346706  .00004304  00000+0  40494-3 0  9995", "line2": "2 30660  98.1396  90.8971 0136539 309.8916 102.8425 14.87619757  8960"}}, "geometry": {"type": "Point", "coordinates": [-91.3477487953914, -19.860116733948022]}}, {"type": "Feature", "properties": {"norad_id": 30661, "name": "FENGYUN 1C DEB", "group": "fengyun-1c-debris", "lat": 79.60675404261782, "lon": 56.96967531692715, "alt_km": 780.0018758608594, "timestamp": "2025-12-20T22:39:10.904000+00:00", "meta": {"OBJECT_NAME": "FENGYUN 1C DEB", "OBJECT_ID": "1999-025APT", "EPOCH": "2025-12-19T10:44:17.431008", "MEAN_MOTION": 14.21146014, "ECCENTRICITY": 0.0144508, "INCLINATION": 99.4871, "RA_OF_ASC_NODE": 169.6213, "ARG_OF_PERICENTER": 26.7747, "MEAN_ANOMALY": 334.0794, "EPHEMERIS_TYPE": 0, "CLASSIFICATION_TYPE": "U", "NORAD_CAT_ID": 30661, "ELEMENT_SET_NO": 999, "REV_AT_EPOCH": 97997, "BSTAR": 9.1614e-05, "MEAN_MOTION_DOT": 1.71e-06, "MEAN_MOTION_DDOT": 0}, "tle": {"line1": "1 30661U 99025APT 25353.44742397  .00000171  00000+0  91614-4 0  9992", "line2": "2 30661  99.4871 169.6213 0144508  26.7747 334.0794 14.21146014979974"}}, "geometry": {"type": "Point", "coordinates": [56.96967531692715, 79.60675404261782]}}, {"type": "Feature", "properties": {"norad_id": 30662, "name": "FENGYUN 1C DEB", "group": "fengyun-1c-debris", "lat": 3.185720852544522, "lon": -128.0517099701063, "alt_km": 811.7396427628073, "timestamp": "2025-12-20T22:39:10.904010+00:00", "meta": {"OBJECT_NAME": "FENGYUN 1C DEB", "OBJECT_ID": "1999-025APU", "EPOCH": "2025-12-17T02:47:53.975616", "MEAN_MOTION": 14.2238731, "ECCENTRICITY": 0.00333112, "INCLINATION": 99.053, "RA_OF_ASC_NODE": 47.5109, "ARG_OF_PERICENTER": 258.3821, "MEAN_ANOMALY": 131.5027, "EPHEMERIS_TYPE": 0, "CLASSIFICATION_TYPE": "U", "NORAD_CAT_ID": 30662, "ELEMENT_SET_NO": 999, "REV_AT_EPOCH": 96701, "BSTAR": 0.0012023141, "MEAN_MOTION_DOT": 2.645e-05, "MEAN_MOTION_DDOT": 0}, "tle": {"line1": "1 30662U 99025APU 25351.11659694  .00002645  00000+0  12023-2 0  9995", "line2": "2 30662  99.0530  47.5109 0033311 258.3821 131.5027 14.22387310967014"}}, "geometry": {"type": "Point", "coordinates": [-128.0517099701063, 3.185720852544522]}}]}